{
    "CURRENT_WEATHER": [{
        "STATION_CODE": "-",
        "STATION_NAME": "-",
        "METAR": "-",
        "WIND_SPEED": "-",
        "WIND_DIRECTION": "-",
        "RH": "-",
        "VISIBILITY": "-",
        "TEMP": "-",
        "WEATHER": "-",
        "WEATHER_STRING": "-",
        "STATION_COLOR": "-",
        "STATION_COLOR_NAME": "-",
        "LAT": "-",
        "LON": "-",
        "HAVE_RADAR": "-",
        "CEILING": "-",
        "NEWS_TIME": "-",
        "NEWS_TYPE": "-"
    }, {
        "STATION_CODE": "VTMD",
        "STATION_NAME": "DONMUANG",
        "METAR": "VTMD 040700Z 18007KT 9999 SCT030 BKN100 BKN300 33/24 A2966 RMK SLP044 3SC030 3AC100 1CI300",
        "WIND_SPEED": "07",
        "WIND_DIRECTION": "180",
        "RH": "58",
        "VISIBILITY": "9999",
        "TEMP": "33",
        "WEATHER": "7",
        "WEATHER_STRING": "CLOUDY",
        "STATION_COLOR": "1",
        "STATION_COLOR_NAME": "VFR",
        "LAT": "-",
        "LON": "-",
        "HAVE_RADAR": "0",
        "CEILING": "10000 ft.",
        "NEWS_TIME": "04/07/2565 14:00(LST)",
        "NEWS_TYPE": "SA"
    }, {
        "STATION_CODE": "VTNI",
        "STATION_NAME": "DOI-INTANON",
        "METAR": "VTNI 040700Z 28010KT 0000 FG VV000 16/16 A3027 RMK RAE14 FG VV000 SLP251",
        "WIND_SPEED": "10",
        "WIND_DIRECTION": "280",
        "RH": "100",
        "VISIBILITY": "0",
        "TEMP": "16",
        "WEATHER": "31",
        "WEATHER_STRING": "FOG",
        "STATION_COLOR": "4",
        "STATION_COLOR_NAME": "LIFR",
        "LAT": "-",
        "LON": "-",
        "HAVE_RADAR": "0",
        "CEILING": "-",
        "NEWS_TIME": "04/07/2565 14:00(LST)",
        "NEWS_TYPE": "SA"
    }, {
        "STATION_CODE": "VTNC",
        "STATION_NAME": "CHIANGMAI",
        "METAR": "VTNC 040700Z 32002KT 9999 SCT035 BKN300 35/23 A2961 RMK SLP028 WND DATA ESTMD 3SC035 2CI300",
        "WIND_SPEED": "02",
        "WIND_DIRECTION": "320",
        "RH": "50",
        "VISIBILITY": "9999",
        "TEMP": "35",
        "WEATHER": "4",
        "WEATHER_STRING": "PARTLY CLOUDY",
        "STATION_COLOR": "1",
        "STATION_COLOR_NAME": "VFR",
        "LAT": "-",
        "LON": "-",
        "HAVE_RADAR": "0",
        "CEILING": "30000 ft.",
        "NEWS_TIME": "04/07/2565 14:00(LST)",
        "NEWS_TYPE": "SA"
    }, {
        "STATION_CODE": "VTNP",
        "STATION_NAME": "PHITSANULOK",
        "METAR": "VTNP 040700Z 18004KT 9999 FEW025 BKN100 BKN300 33/26 A2965 RMK SLP041 2CU025 3AC100 2CI300",
        "WIND_SPEED": "04",
        "WIND_DIRECTION": "180",
        "RH": "67",
        "VISIBILITY": "9999",
        "TEMP": "33",
        "WEATHER": "6",
        "WEATHER_STRING": "CLOUDY",
        "STATION_COLOR": "1",
        "STATION_COLOR_NAME": "VFR",
        "LAT": "-",
        "LON": "-",
        "HAVE_RADAR": "0",
        "CEILING": "10000 ft.",
        "NEWS_TIME": "04/07/2565 14:00(LST)",
        "NEWS_TYPE": "SA"
    }, {
        "STATION_CODE": "VTED",
        "STATION_NAME": "UDON",
        "METAR": "VTED 040700Z 22004KT 9999 VCSH FEW018CB SCT025 BKN100 BKN300 34/27 A2956 RMK CB 5S AND 8W-NW MOV NE SLP010 VCSH S 1CB018 3SC025 2AC100 1CI300",
        "WIND_SPEED": "04",
        "WIND_DIRECTION": "220",
        "RH": "66",
        "VISIBILITY": "9999",
        "TEMP": "34",
        "WEATHER": "7",
        "WEATHER_STRING": "CLOUDY",
        "STATION_COLOR": "1",
        "STATION_COLOR_NAME": "VFR",
        "LAT": "-",
        "LON": "-",
        "HAVE_RADAR": "1",
        "CEILING": "10000 ft.",
        "NEWS_TIME": "04/07/2565 14:00(LST)",
        "NEWS_TYPE": "SA"
    }, {
        "STATION_CODE": "VTEU",
        "STATION_NAME": "UBON",
        "METAR": "VTEU 040700Z 19004KT 9999 SCT020 BKN100 BKN300 33/25 A2962 RMK SLP030 3SC020 2AC100 2CI300",
        "WIND_SPEED": "04",
        "WIND_DIRECTION": "190",
        "RH": "64",
        "VISIBILITY": "9999",
        "TEMP": "33",
        "WEATHER": "6",
        "WEATHER_STRING": "CLOUDY",
        "STATION_COLOR": "1",
        "STATION_COLOR_NAME": "VFR",
        "LAT": "-",
        "LON": "-",
        "HAVE_RADAR": "1",
        "CEILING": "10000 ft.",
        "NEWS_TIME": "04/07/2565 14:00(LST)",
        "NEWS_TYPE": "SA"
    }, {
        "STATION_CODE": "VTEN",
        "STATION_NAME": "KORAT",
        "METAR": "VTEN 040700Z 27010KT 9999 FEW020 SCT025 BKN100 BKN300 35/24 A2966 RMK SLP044 2CU020 2SC025 1AC100 2CI300",
        "WIND_SPEED": "10",
        "WIND_DIRECTION": "270",
        "RH": "54",
        "VISIBILITY": "9999",
        "TEMP": "35",
        "WEATHER": "6",
        "WEATHER_STRING": "CLOUDY",
        "STATION_COLOR": "1",
        "STATION_COLOR_NAME": "VFR",
        "LAT": "-",
        "LON": "-",
        "HAVE_RADAR": "1",
        "CEILING": "10000 ft.",
        "NEWS_TIME": "04/07/2565 14:00(LST)",
        "NEWS_TYPE": "SA"
    }, {
        "STATION_CODE": "VTEZ",
        "STATION_NAME": "NAMPHONG",
        "METAR": "NIL",
        "WIND_SPEED": "-",
        "WIND_DIRECTION": "-",
        "RH": "-",
        "VISIBILITY": "-",
        "TEMP": "-",
        "WEATHER": "-",
        "WEATHER_STRING": "-",
        "STATION_COLOR": "-",
        "STATION_COLOR_NAME": "-",
        "LAT": "-",
        "LON": "-",
        "HAVE_RADAR": "0",
        "CEILING": "-",
        "NEWS_TIME": "04/07/2565 14:00(LST)",
        "NEWS_TYPE": ""
    }, {
        "STATION_CODE": "VTET",
        "STATION_NAME": "NONGTAKU",
        "METAR": "NIL",
        "WIND_SPEED": "-",
        "WIND_DIRECTION": "-",
        "RH": "-",
        "VISIBILITY": "-",
        "TEMP": "-",
        "WEATHER": "-",
        "WEATHER_STRING": "-",
        "STATION_COLOR": "-",
        "STATION_COLOR_NAME": "-",
        "LAT": "-",
        "LON": "-",
        "HAVE_RADAR": "0",
        "CEILING": "-",
        "NEWS_TIME": "04/07/2565 14:00(LST)",
        "NEWS_TYPE": ""
    }, {
        "STATION_CODE": "VTMG",
        "STATION_NAME": "KAOKIEO",
        "METAR": "VTMG 040700Z 22004KT 0000 FG  VV000 21/21 A2998 RMK FG VV000 SLP152",
        "WIND_SPEED": "04",
        "WIND_DIRECTION": "220",
        "RH": "100",
        "VISIBILITY": "0",
        "TEMP": "21",
        "WEATHER": "31",
        "WEATHER_STRING": "FOG",
        "STATION_COLOR": "4",
        "STATION_COLOR_NAME": "LIFR",
        "LAT": "-",
        "LON": "-",
        "HAVE_RADAR": "0",
        "CEILING": "-",
        "NEWS_TIME": "04/07/2565 14:00(LST)",
        "NEWS_TYPE": "SA"
    }, {
        "STATION_CODE": "VTMI",
        "STATION_NAME": "TAKHLI",
        "METAR": "VTMI 040700Z 19010KT 9999 SCT025 BKN100 BKN300 34/21 A2961 RMK SLP027 3SC025 2AC100 2CI300",
        "WIND_SPEED": "10",
        "WIND_DIRECTION": "190",
        "RH": "48",
        "VISIBILITY": "9999",
        "TEMP": "34",
        "WEATHER": "6",
        "WEATHER_STRING": "CLOUDY",
        "STATION_COLOR": "1",
        "STATION_COLOR_NAME": "VFR",
        "LAT": "-",
        "LON": "-",
        "HAVE_RADAR": "1",
        "CEILING": "10000 ft.",
        "NEWS_TIME": "04/07/2565 14:00(LST)",
        "NEWS_TYPE": "SA"
    }, {
        "STATION_CODE": "VTML",
        "STATION_NAME": "KOKEKATHIEM",
        "METAR": "VTML 040700Z 18010G14KT 9999 FEW020 BKN100 BKN300 34/26 A2964 RMK SLP037 2SC020 3AC100 1CI300",
        "WIND_SPEED": "10G14",
        "WIND_DIRECTION": "180",
        "RH": "63",
        "VISIBILITY": "9999",
        "TEMP": "34",
        "WEATHER": "6",
        "WEATHER_STRING": "CLOUDY",
        "STATION_COLOR": "1",
        "STATION_COLOR_NAME": "VFR",
        "LAT": "-",
        "LON": "-",
        "HAVE_RADAR": "0",
        "CEILING": "10000 ft.",
        "NEWS_TIME": "04/07/2565 14:00(LST)",
        "NEWS_TYPE": "SA"
    }, {
        "STATION_CODE": "VTMM",
        "STATION_NAME": "MUANGKOM",
        "METAR": "VTMM 040700Z 23010KT 9999 SCT020 BKN100 BKN300 35/23 A2963 RMK SLP034 3SC020 2AC100 2CI300",
        "WIND_SPEED": "10",
        "WIND_DIRECTION": "230",
        "RH": "50",
        "VISIBILITY": "9999",
        "TEMP": "34",
        "WEATHER": "6",
        "WEATHER_STRING": "CLOUDY",
        "STATION_COLOR": "1",
        "STATION_COLOR_NAME": "VFR",
        "LAT": "-",
        "LON": "-",
        "HAVE_RADAR": "0",
        "CEILING": "10000 ft.",
        "NEWS_TIME": "04/07/2565 14:00(LST)",
        "NEWS_TYPE": "SA"
    }, {
        "STATION_CODE": "VTMK",
        "STATION_NAME": "KAMPHAENGSAEN",
        "METAR": "VTMK 040700Z 23004KT 9999 FEW020CB SCT030 BKN100 OVC300 33/24 A2963 RMK CB W MOV NE SLP034 1CB020 3SC030 2AC100 2CI300",
        "WIND_SPEED": "04",
        "WIND_DIRECTION": "230",
        "RH": "57",
        "VISIBILITY": "9999",
        "TEMP": "33",
        "WEATHER": "7",
        "WEATHER_STRING": "CLOUDY",
        "STATION_COLOR": "1",
        "STATION_COLOR_NAME": "VFR",
        "LAT": "-",
        "LON": "-",
        "HAVE_RADAR": "1",
        "CEILING": "10000 ft.",
        "NEWS_TIME": "04/07/2565 14:00(LST)",
        "NEWS_TYPE": "SA"
    }, {
        "STATION_CODE": "VTMW",
        "STATION_NAME": "WATTHANA-NAKHON",
        "METAR": "VTMW 040700Z 30010KT 9999 FEW020 BKN100 BKN300 33/24 A2966 RMK SLP044 2SC020 3AC100 2CI300",
        "WIND_SPEED": "10",
        "WIND_DIRECTION": "300",
        "RH": "58",
        "VISIBILITY": "9999",
        "TEMP": "33",
        "WEATHER": "6",
        "WEATHER_STRING": "CLOUDY",
        "STATION_COLOR": "1",
        "STATION_COLOR_NAME": "VFR",
        "LAT": "-",
        "LON": "-",
        "HAVE_RADAR": "0",
        "CEILING": "10000 ft.",
        "NEWS_TIME": "04/07/2565 14:00(LST)",
        "NEWS_TYPE": "SA"
    }, {
        "STATION_CODE": "VTMU",
        "STATION_NAME": "U-TAPHAO",
        "METAR": "VTMU 040700Z 21012KT 9999 FEW020 BKN120 OVC300 32/24 A2971 RMK SLP052 2CU020 3AC120 4CS300",
        "WIND_SPEED": "12",
        "WIND_DIRECTION": "210",
        "RH": "63",
        "VISIBILITY": "9999",
        "TEMP": "32",
        "WEATHER": "6",
        "WEATHER_STRING": "CLOUDY",
        "STATION_COLOR": "1",
        "STATION_COLOR_NAME": "VFR",
        "LAT": "-",
        "LON": "-",
        "HAVE_RADAR": "0",
        "CEILING": "12000 ft.",
        "NEWS_TIME": "04/07/2565 14:00(LST)",
        "NEWS_TYPE": "SA"
    }, {
        "STATION_CODE": "VTMP",
        "STATION_NAME": "PRACHUAP",
        "METAR": "VTMP 040700Z 18010KT 9999 VCSH FEW015 SCT030 BKN100 OVC300 30/25 A2970 RMK VIS SW-NW 3200 SLP058 VCSH SW-NW 1CU015 2SC030 4AC100 1CI300",
        "WIND_SPEED": "10",
        "WIND_DIRECTION": "180",
        "RH": "77",
        "VISIBILITY": "9999",
        "TEMP": "30",
        "WEATHER": "8",
        "WEATHER_STRING": "VERY CLOUDY",
        "STATION_COLOR": "1",
        "STATION_COLOR_NAME": "VFR",
        "LAT": "-",
        "LON": "-",
        "HAVE_RADAR": "0",
        "CEILING": "10000 ft.",
        "NEWS_TIME": "04/07/2565 14:00(LST)",
        "NEWS_TYPE": "SA"
    }, {
        "STATION_CODE": "VTDB",
        "STATION_NAME": "SURATTHANI",
        "METAR": "VTDB 040700Z 20012G14KT 4800 RA SCT015 BKN025 OVC080 25/24 A2974 RMK SLP071 WR// 3SC015 2SC025 3AS080",
        "WIND_SPEED": "12G14",
        "WIND_DIRECTION": "200",
        "RH": "78",
        "VISIBILITY": "4800",
        "TEMP": "25",
        "WEATHER": "41",
        "WEATHER_STRING": "RAIN",
        "STATION_COLOR": "2",
        "STATION_COLOR_NAME": "MVFR",
        "LAT": "-",
        "LON": "-",
        "HAVE_RADAR": "1",
        "CEILING": "2500 ft.",
        "NEWS_TIME": "04/07/2565 14:00(LST)",
        "NEWS_TYPE": "SA"
    }, {
        "STATION_CODE": "VTDS",
        "STATION_NAME": "HAT-YAI",
        "METAR": "NIL",
        "WIND_SPEED": "-",
        "WIND_DIRECTION": "-",
        "RH": "-",
        "VISIBILITY": "-",
        "TEMP": "-",
        "WEATHER": "-",
        "WEATHER_STRING": "-",
        "STATION_COLOR": "-",
        "STATION_COLOR_NAME": "-",
        "LAT": "-",
        "LON": "-",
        "HAVE_RADAR": "0",
        "CEILING": "-",
        "NEWS_TIME": "04/07/2565 14:00(LST)",
        "NEWS_TYPE": ""
    }, {
        "STATION_CODE": "VTMH",
        "STATION_NAME": "HUA-HIN",
        "METAR": "VTMH 040700Z 22008G12KT 9999 SCT025 BKN100 BKN300 32/25 A2967 RMK SLP047 3CU025 2AC100 2CI300",
        "WIND_SPEED": "08G12",
        "WIND_DIRECTION": "220",
        "RH": "65",
        "VISIBILITY": "9999",
        "TEMP": "32",
        "WEATHER": "6",
        "WEATHER_STRING": "CLOUDY",
        "STATION_COLOR": "1",
        "STATION_COLOR_NAME": "VFR",
        "LAT": "-",
        "LON": "-",
        "HAVE_RADAR": "0",
        "CEILING": "10000 ft.",
        "NEWS_TIME": "04/07/2565 14:00(LST)",
        "NEWS_TYPE": "SA"
    }, {
        "STATION_CODE": "VTDT",
        "STATION_NAME": "BHO-THONG",
        "METAR": "NIL",
        "WIND_SPEED": "-",
        "WIND_DIRECTION": "-",
        "RH": "-",
        "VISIBILITY": "-",
        "TEMP": "-",
        "WEATHER": "-",
        "WEATHER_STRING": "-",
        "STATION_COLOR": "-",
        "STATION_COLOR_NAME": "-",
        "LAT": "-",
        "LON": "-",
        "HAVE_RADAR": "0",
        "CEILING": "-",
        "NEWS_TIME": "04/07/2565 14:00(LST)",
        "NEWS_TYPE": ""
    }, {
        "STATION_CODE": "NORA",
        "STATION_NAME": "NORA",
        "METAR": "NIL",
        "WIND_SPEED": "-",
        "WIND_DIRECTION": "-",
        "RH": "-",
        "VISIBILITY": "-",
        "TEMP": "-",
        "WEATHER": "-",
        "WEATHER_STRING": "-",
        "STATION_COLOR": "-",
        "STATION_COLOR_NAME": "-",
        "LAT": "-",
        "LON": "-",
        "HAVE_RADAR": "0",
        "CEILING": "-",
        "NEWS_TIME": "04/07/2565 14:00(LST)",
        "NEWS_TYPE": ""
    }]
}