{
    "CURRENT_TAF": [{
        "STATION_CODE": "-",
        "STATION_NAME": "-",
        "NEWS_TIME": "-",
        "TAF_TEXT": "-"
    }, {
        "STATION_CODE": "VTMD",
        "STATION_NAME": "DONMUANG",
        "NEWS_TIME": "04/07/2022 0500",
        "TAF_TEXT": "VTMD 040500Z 0405/0505 21010KT 9999 SCT030 BKN100 BKN300 QNH2962INS<br/> TEMPO 0408/0411 21010G30KT 3200 TSRA FEW018CB BKN030 OVC090"
    }, {
        "STATION_CODE": "VTNC",
        "STATION_NAME": "CHIANGMAI",
        "NEWS_TIME": "04/07/2022 0500",
        "TAF_TEXT": "VTNC 040500Z 0405/0505 19005KT 9999 SCT035 BKN100 BKN300 QNH2956INS<br/> TEMPO 0408/0412 24010G25KT 6000 TSRA FEW020CB BKN030 OVC090"
    }, {
        "STATION_CODE": "VTNP",
        "STATION_NAME": "PHITSANULOK",
        "NEWS_TIME": "04/07/2022 0500",
        "TAF_TEXT": "VTNP 040500Z 0405/0505 18010KT 9999 SCT025 BKN100 BKN300 QNH2960INS<br/> TEMPO 0408/0412 23010G25KT 6000 TSRA FEW020CB BKN030 OVC100"
    }, {
        "STATION_CODE": "VTED",
        "STATION_NAME": "UDON",
        "NEWS_TIME": "04/07/2022 0500",
        "TAF_TEXT": "VTED 040500Z 0405/0505 24005KT 9999 SCT025 BKN100 BKN300 QNH2951INS<br/> TEMPO 0408/0413 24010G25KT 6000 TSRA FEW018CB BKN020 OVC100"
    }, {
        "STATION_CODE": "VTEU",
        "STATION_NAME": "UBON",
        "NEWS_TIME": "04/07/2022 0500",
        "TAF_TEXT": "VTEU 040500Z 0405/0505 21006KT 9999 SCT025 BKN100 BKN300 QNH2958INS<br/> TEMPO 0408/0412 24010G20KT 6000 TSRA FEW018CB BKN025 OVC090"
    }, {
        "STATION_CODE": "VTEN",
        "STATION_NAME": "KORAT",
        "NEWS_TIME": "04/07/2022 0500",
        "TAF_TEXT": "VTEN 040500Z 0405/0505 25010G20KT 9999 SCT025 BKN100 BKN300 QNH2960INS<br/> TEMPO 0408/0412 25010G25KT 6000 TSRA FEW018CB BKN020 OVC080"
    }, {
        "STATION_CODE": "VTET",
        "STATION_NAME": "NONGTAKU",
        "NEWS_TIME": "03/07/2022 1610",
        "TAF_TEXT": "VTET 031610Z 0323/0411 24010KT 9999 FEW020 SCT100 BKN300 QNH2973INS<br/> TEMPO 0408/0411 25010G20KT 4800 TSRA FEW018CB BKN030 OVC100"
    }, {
        "STATION_CODE": "VTMI",
        "STATION_NAME": "TAKHLI",
        "NEWS_TIME": "04/07/2022 0500",
        "TAF_TEXT": "VTMI 040500Z 0405/0505 20010KT 9999 SCT025 BKN100 BKN300 QNH2960INS<br/> TEMPO 0409/0412 22010KT 6000 TSRA FEW018CB BKN025 OVC080"
    }, {
        "STATION_CODE": "VTML",
        "STATION_NAME": "KOKEKATHIEM",
        "NEWS_TIME": "04/07/2022 0500",
        "TAF_TEXT": "VTML 040500Z 0405/0505 24010KT 9999 SCT020 BKN100 BKN300 QNH2960INS<br/> TEMPO 0408/0412 24010KT 9999 VCSH FEW018CB SCT020 BKN100 BKN300"
    }, {
        "STATION_CODE": "VTMK",
        "STATION_NAME": "KAMPHAENGSAEN",
        "NEWS_TIME": "04/07/2022 0500",
        "TAF_TEXT": "VTMK 040500Z 0405/0505 22010KT 9999 FEW030 BKN100 OVC300 QNH2964INS<br/> TEMPO 0408/0411 22010G20KT 6000 TSRA FEW020CB BKN035 OVC090"
    }, {
        "STATION_CODE": "VTMW",
        "STATION_NAME": "WATTHANA-NAKHON",
        "NEWS_TIME": "03/07/2022 2300",
        "TAF_TEXT": "VTMW 032300Z 0323/0423 00000KT 8000 BR FEW025 BKN100 BKN300 QNH2966INS<br/> BECMG 0401/0402 23010KT 9999 FEW025 BKN100 BKN300 QNH2956INS<br/> TEMPO 0407/0410 25010G25KT 4800 TSRA FEW020CB SCT025 BKN090 OVC300"
    }, {
        "STATION_CODE": "VTMU",
        "STATION_NAME": "U-TAPHAO",
        "NEWS_TIME": "03/07/2022 2300",
        "TAF_TEXT": "VTMU 032300Z 0323/0423 25005KT 9999 FEW020 SCT040 BKN100 BKN300 QNH2963INS<br/> TEMPO 0407/0411 22025KT 4800 TSRA FEW018CB BKN020 OVC035"
    }, {
        "STATION_CODE": "VTMP",
        "STATION_NAME": "PRACHUAP",
        "NEWS_TIME": "04/07/2022 0500",
        "TAF_TEXT": "VTMP 040500Z 0405/0505 23010KT 9999 FEW020 BKN100 BKN300 QNH2963INS<br/> TEMPO 0407/0410 24010G20KT 8000 SHRA FEW015CB SCT030 BKN090 OVC300"
    }, {
        "STATION_CODE": "VTDB",
        "STATION_NAME": "SURATTHANI",
        "NEWS_TIME": "04/07/2022 0500",
        "TAF_TEXT": "VTDB 040500Z 0405/0505 23010KT 4800 RA BR FEW015 SCT020 BKN030 OVC080 QNH2975INS<br/> BECMG 0411/0412 00000KT 8000 BR FEW020 SCT030 BKN100 BKN300 QNH2970INS"
    }, {
        "STATION_CODE": "VTDS",
        "STATION_NAME": "HAT-YAI",
        "NEWS_TIME": "04/07/2022 0500",
        "TAF_TEXT": "VTDS 040500Z 0405/0505 24008KT 9999 SCT020 SCT100 BKN300 QNH2972INS<br/> TEMPO 0405/0409 24010G25KT 4800 TSRA FEW018CB BKN020 OVC080"
    }, {
        "STATION_CODE": "VTMH",
        "STATION_NAME": "HUA-HIN",
        "NEWS_TIME": "03/07/2022 2300",
        "TAF_TEXT": "VTMH 032300Z 0323/0411 24010KT 9999 SCT030 BKN100 BKN300 QNH2961INS<br/> TEMPO 0408/0411 23010G16KT 9999 VCSH FEW018CB SCT025 BKN100 BKN300"
    }, {
        "STATION_CODE": "VTDT",
        "STATION_NAME": "BHO-THONG",
        "NEWS_TIME": "03/07/2022 2300",
        "TAF_TEXT": "VTDT 032300Z 0323/0423 24010KT 9999 FEW020 SCT100 BKN300 QNH2967INS<br/> TEMPO 0408/0411 24010KT 9999 VCSH FEW015CB SCT030 BKN300"
    }]
}