{
    "CURRENT_WEATHER": [{
            "STATION_CODE": "-",
            "STATION_NAME": "-",
            "METAR": "-",
            "WIND_SPEED": "-",
            "WIND_DIRECTION": "-",
            "RH": "-",
            "VISIBILITY": "-",
            "TEMP": "-",
            "WEATHER": "-",
            "WEATHER_STRING": "-",
            "STATION_COLOR": "-",
            "STATION_COLOR_NAME": "-",
            "LAT": "-",
            "LON": "-",
            "HAVE_RADAR": "-",
            "CEILING": "-",
            "NEWS_TIME": "-",
            "NEWS_TYPE": "-"
        },
        {
            "STATION_CODE": "VTMD",
            "STATION_NAME": "DONMUANG",
            "METAR": "VTMD 241200Z 11007KT 8000 TSRA FEW018CB SCT040 BKN100 OVC300 25/24 A2973 RMK OCNL LTGIC TS OHD MOV W SLP068 WR// 60444 70444 1CB018 3SC040 3AC100 1CI300",
            "WIND_SPEED": "07",
            "WIND_DIRECTION": "110",
            "RH": "98",
            "VISIBILITY": "8000",
            "TEMP": "25",
            "WEATHER": "5000",
            "WEATHER_STRING": "THUNDER STORM",
            "STATION_COLOR": "1",
            "STATION_COLOR_NAME": "VFR",
            "LAT": "-",
            "LON": "-",
            "HAVE_RADAR": "0",
            "CEILING": "10000 ft.",
            "NEWS_TIME": "24/06/2565 19:00(LST)",
            "NEWS_TYPE": "SA"
        },
        {
            "STATION_CODE": "VTNC",
            "STATION_NAME": "CHIANGMAI",
            "METAR": "VTNC 241200Z 32002KT 9999 FEW025 SCT035 BKN100 OVC300 31/25 A2970 RMK SLP060 WND DATA ESTMD 1CU025 2SC035 2AS100 3CI300",
            "WIND_SPEED": "02",
            "WIND_DIRECTION": "320",
            "RH": "68",
            "VISIBILITY": "9999",
            "TEMP": "31",
            "WEATHER": "600",
            "WEATHER_STRING": "CLOUDY",
            "STATION_COLOR": "1",
            "STATION_COLOR_NAME": "VFR",
            "LAT": "-",
            "LON": "-",
            "HAVE_RADAR": "0",
            "CEILING": "10000 ft.",
            "NEWS_TIME": "24/06/2565 19:00(LST)",
            "NEWS_TYPE": "SA"
        },
        {
            "STATION_CODE": "VTNP",
            "STATION_NAME": "PHITSANULOK",
            "METAR": "VTNP 241200Z 00000KT 9999 FEW020CB SCT025 BKN100 BKN300 32/25 A2969 RMK OCNL LTGIC CB W-NW MOV SE SLP055 60000 1CB020 2SC025 2AC100 2CI300",
            "WIND_SPEED": "00",
            "WIND_DIRECTION": "000",
            "RH": "67",
            "VISIBILITY": "9999",
            "TEMP": "32",
            "WEATHER": "600",
            "WEATHER_STRING": "CLOUDY",
            "STATION_COLOR": "1",
            "STATION_COLOR_NAME": "VFR",
            "LAT": "-",
            "LON": "-",
            "HAVE_RADAR": "0",
            "CEILING": "10000 ft.",
            "NEWS_TIME": "24/06/2565 19:00(LST)",
            "NEWS_TYPE": "SA"
        },
        {
            "STATION_CODE": "VTED",
            "STATION_NAME": "UDON",
            "METAR": "VTED 241200Z 18002KT 9999 FEW030 SCT100 BKN300 28/24 A2964 RMK SLP037 60000 1SC030 2AC100 3CI300",
            "WIND_SPEED": "02",
            "WIND_DIRECTION": "180",
            "RH": "79",
            "VISIBILITY": "9999",
            "TEMP": "28",
            "WEATHER": "400",
            "WEATHER_STRING": "PARTLY CLOUDY",
            "STATION_COLOR": "1",
            "STATION_COLOR_NAME": "VFR",
            "LAT": "-",
            "LON": "-",
            "HAVE_RADAR": "1",
            "CEILING": "30000 ft.",
            "NEWS_TIME": "24/06/2565 19:00(LST)",
            "NEWS_TYPE": "SA"
        },
        {
            "STATION_CODE": "VTMI",
            "STATION_NAME": "TAKHLI",
            "METAR": "VTMI 241200Z 27002KT 9999 SCT030 BKN100 OVC300 30/24 A2966 RMK SLP044 3SC030 3AC100 2CI300",
            "WIND_SPEED": "02",
            "WIND_DIRECTION": "270",
            "RH": "73",
            "VISIBILITY": "9999",
            "TEMP": "30",
            "WEATHER": "700",
            "WEATHER_STRING": "CLOUDY",
            "STATION_COLOR": "1",
            "STATION_COLOR_NAME": "VFR",
            "LAT": "-",
            "LON": "-",
            "HAVE_RADAR": "1",
            "CEILING": "10000 ft.",
            "NEWS_TIME": "24/06/2565 19:00(LST)",
            "NEWS_TYPE": "SA"
        },
        {
            "STATION_CODE": "VTMP",
            "STATION_NAME": "PRACHUAP",
            "METAR": "VTMP 241200Z 19004KT 9999 VCSH FEW020TCU FEW100 BKN300 30/25 A2971 RMK TCU S AND NW SLP061 VCSH S 1TCU020 1AC100 5CI300",
            "WIND_SPEED": "04",
            "WIND_DIRECTION": "190",
            "RH": "75",
            "VISIBILITY": "9999",
            "TEMP": "30",
            "WEATHER": "300",
            "WEATHER_STRING": "FINE",
            "STATION_COLOR": "1",
            "STATION_COLOR_NAME": "VFR",
            "LAT": "-",
            "LON": "-",
            "HAVE_RADAR": "0",
            "CEILING": "30000 ft.",
            "NEWS_TIME": "24/06/2565 19:00(LST)",
            "NEWS_TYPE": "SA"
        }
    ]
}