{
    "CURRENT_TAF": [{
            "STATION_CODE": "-",
            "STATION_NAME": "-",
            "NEWS_TIME": "-",
            "TAF_TEXT": "-"
        },
        {
            "STATION_CODE": "VTMD",
            "STATION_NAME": "DONMUANG",
            "NEWS_TIME": "24/06/2022 0500",
            "TAF_TEXT": "VTMD 240500Z 2405/2505 22010KT 9999 FEW030 SCT100 BKN300 QNH2966INS<br/> TEMPO 2413/2417 VRB10G30KT 4800 TSRA FEW018CB BKN030 OVC080"
        },
        {
            "STATION_CODE": "VTNC",
            "STATION_NAME": "CHIANGMAI",
            "NEWS_TIME": "24/06/2022 0500",
            "TAF_TEXT": "VTNC 240500Z 2405/2505 24005KT 9999 FEW025 SCT035 BKN100 BKN300 QNH2970INS<br/> TEMPO 2410/2414 23010G20KT 6000 TSRA FEW020CB BKN030 OVC100"
        },
        {
            "STATION_CODE": "VTNP",
            "STATION_NAME": "PHITSANULOK",
            "NEWS_TIME": "24/06/2022 0500",
            "TAF_TEXT": "VTNP 240500Z 2405/2505 18010KT 9999 SCT025 SCT100 BKN300 QNH2964INS<br/> TEMPO 2408/2412 18010G25KT 6000 TSRA FEW020CB BKN025 OVC100<br/> TEMPO 2415/2418 18010G25KT 4800 TSRA FEW020CB BKN025 OVC090"
        },
        {
            "STATION_CODE": "VTED",
            "STATION_NAME": "UDON",
            "NEWS_TIME": "24/06/2022 0500",
            "TAF_TEXT": "VTED 240500Z 2405/2505 VRB05KT 9999 FEW018CB SCT020 SCT100 BKN300 QNH2964INS<br/> TEMPO 2405/2410 15010G25KT 4800 TSRA FEW018CB BKN020 OVC090<br/> BECMG 2410/2412 VRB05KT 9999 SCT020 SCT100 BKN300 QNH2965INS"
        },
        {
            "STATION_CODE": "VTEU",
            "STATION_NAME": "UBON",
            "NEWS_TIME": "24/06/2022 0500",
            "TAF_TEXT": "VTEU 240500Z 2405/2505 18010KT 9999 FEW030 SCT100 BKN300 QNH2963INS<br/> TEMPO 2408/2411 24010G20KT 9999 VCSH FEW020CB SCT035 BKN100 BKN300"
        },
        {
            "STATION_CODE": "VTEN",
            "STATION_NAME": "KORAT",
            "NEWS_TIME": "24/06/2022 0500",
            "TAF_TEXT": "VTEN 240500Z 2405/2505 27010KT 9999 SCT025 BKN100 BKN300 QNH2968INS<br/> TEMPO 2407/2410 24010G30KT 6000 TSRA FEW018CB BKN020 OVC090"
        },
        {
            "STATION_CODE": "VTET",
            "STATION_NAME": "NONGTAKU",
            "NEWS_TIME": "23/06/2022 2306",
            "TAF_TEXT": "VTET 232306Z 2323/2423 25005KT 9999 FEW020 SCT100 BKN300 QNH2976INS<br/> TEMPO 2405/2409 23010G20KT 3200 TSRA FEW018CB SCT020 BKN035 OVC090"
        },
        {
            "STATION_CODE": "VTMI",
            "STATION_NAME": "TAKHLI",
            "NEWS_TIME": "24/06/2022 0500",
            "TAF_TEXT": "VTMI 240500Z 2405/2505 20010KT 9999 FEW025 BKN300 QNH2970INS<br/> TEMPO 2409/2412 28010G25KT 6000 TSRA FEW018CB BKN025 OVC090"
        },
        {
            "STATION_CODE": "VTML",
            "STATION_NAME": "KOKEKATHIEM",
            "NEWS_TIME": "24/06/2022 0500",
            "TAF_TEXT": "VTML 240500Z 2405/2505 24010KT 9999 FEW020 SCT100 BKN300 QNH2964INS<br/> TEMPO 2409/2413 24010G25KT 4800 TSRA FEW018CB BKN020 OVC090"
        },
        {
            "STATION_CODE": "VTMK",
            "STATION_NAME": "KAMPHAENGSAEN",
            "NEWS_TIME": "24/06/2022 0500",
            "TAF_TEXT": "VTMK 240500Z 2405/2505 25010KT 9999 FEW030 SCT100 BKN300 QNH2964INS<br/> TEMPO 2409/2412 24010G25KT 4800 TSRA FEW020CB BKN030 OVC080"
        },
        {
            "STATION_CODE": "VTMU",
            "STATION_NAME": "U-TAPHAO",
            "NEWS_TIME": "24/06/2022 0500",
            "TAF_TEXT": "VTMU 240500Z 2405/2505 VRB05KT 8000 RA FEW018CB BKN040 OVC090 QNH2981INS<br/> BECMG 2406/2408 21010KT 9999 NSW FEW025 BKN100 BKN300 QNH2969INS<br/> TEMPO 2423/2503 VRB10G25KT 3200 TSRA FEW018CB BKN025 OVC080"
        },
        {
            "STATION_CODE": "VTMP",
            "STATION_NAME": "PRACHUAP",
            "NEWS_TIME": "24/06/2022 0500",
            "TAF_TEXT": "VTMP 240500Z 2405/2505 VRB10KT 9999 FEW020 FEW030 SCT100 BKN300 QNH2968INS<br/> TEMPO 2407/2410 24010KT 9999 VCSH FEW020CB FEW030 BKN100 BKN300"
        },
        {
            "STATION_CODE": "VTDB",
            "STATION_NAME": "SURATTHANI",
            "NEWS_TIME": "24/06/2022 0500",
            "TAF_TEXT": "VTDB 240500Z 2405/2505 23012KT 9999 SCT020 BKN100 BKN300 QNH2973INS<br/> TEMPO 2408/2411 23010G25KT 4800 TSRA FEW015CB SCT020 BKN030 OVC100"
        },
        {
            "STATION_CODE": "VTDS",
            "STATION_NAME": "HAT-YAI",
            "NEWS_TIME": "24/06/2022 0500",
            "TAF_TEXT": "VTDS 240500Z 2405/2505 26008KT 9999 SCT020 SCT100 BKN300 QNH2978INS<br/> TEMPO 2406/2410 26010G20KT 4800 TSRA FEW018CB BKN030 OVC090"
        },
        {
            "STATION_CODE": "VTMH",
            "STATION_NAME": "HUA-HIN",
            "NEWS_TIME": "23/06/2022 2300",
            "TAF_TEXT": "VTMH 232300Z 2323/2411 16008KT 9999 FEW025 SCT100 BKN300 QNH2964INS<br/> TEMPO 2407/2411 15010KT 8000 TSRA FEW020CB SCT025 BKN100 OVC300"
        },
        {
            "STATION_CODE": "VTDT",
            "STATION_NAME": "BHO-THONG",
            "NEWS_TIME": "23/06/2022 2300",
            "TAF_TEXT": "VTDT 232300Z 2323/2423 20004KT 9999 FEW025 SCT100 BKN300 QNH2968INS<br/> TEMPO 2408/2411 20010G25KT 4800 TSRA FEW018CB BKN025 OVC090"
        }
    ]
}